{
    "links": {
        "self": "http://www.neowsapp.com/rest/v1/neo/3721906?api_key=iIulBulltgU6a56xZRHN4H3l9WmuAYTsLGpBGhQ2"
    },
    "id": "3721906",
    "neo_reference_id": "3721906",
    "name": "(2015 MV53)",
    "designation": "2015 MV53",
    "nasa_jpl_url": "http://ssd.jpl.nasa.gov/sbdb.cgi?sstr=3721906",
    "absolute_magnitude_h": 21.4,
    "estimated_diameter": {
        "kilometers": {
            "estimated_diameter_min": 0.1394938229,
            "estimated_diameter_max": 0.3119176705
        },
        "meters": {
            "estimated_diameter_min": 139.4938229344,
            "estimated_diameter_max": 311.9176705226
        },
        "miles": {
            "estimated_diameter_min": 0.0866774163,
            "estimated_diameter_max": 0.1938165949
        },
        "feet": {
            "estimated_diameter_min": 457.6569140361,
            "estimated_diameter_max": 1023.3519701574
        }
    },
    "is_potentially_hazardous_asteroid": false,
    "close_approach_data": [
        {
            "close_approach_date": "1989-06-19",
            "close_approach_date_full": "1989-Jun-19 15:28",
            "epoch_date_close_approach": 614273280000,
            "relative_velocity": {
                "kilometers_per_second": "3.7332504026",
                "kilometers_per_hour": "13439.7014493428",
                "miles_per_hour": "8350.9078255653"
            },
            "miss_distance": {
                "astronomical": "0.3166749023",
                "lunar": "123.1865369947",
                "kilometers": "47373890.866538101",
                "miles": "29436770.7832677538"
            },
            "orbiting_body": "Earth"
        },
        {
            "close_approach_date": "2013-06-29",
            "close_approach_date_full": "2013-Jun-29 14:39",
            "epoch_date_close_approach": 1372516740000,
            "relative_velocity": {
                "kilometers_per_second": "2.0268268461",
                "kilometers_per_hour": "7296.5766460153",
                "miles_per_hour": "4533.8089720754"
            },
            "miss_distance": {
                "astronomical": "1.6558868161",
                "lunar": "644.1399714629",
                "kilometers": "247717140.649641707",
                "miles": "153924293.6353492766"
            },
            "orbiting_body": "Juptr"
        },
        {
            "close_approach_date": "2015-06-17",
            "close_approach_date_full": "2015-Jun-17 02:31",
            "epoch_date_close_approach": 1434508260000,
            "relative_velocity": {
                "kilometers_per_second": "3.4137458139",
                "kilometers_per_hour": "12289.4849300535",
                "miles_per_hour": "7636.2080111213"
            },
            "miss_distance": {
                "astronomical": "0.3591335344",
                "lunar": "139.7029448816",
                "kilometers": "53725611.791811728",
                "miles": "33383547.1517807264"
            },
            "orbiting_body": "Earth"
        },
        {
            "close_approach_date": "2041-06-26",
            "close_approach_date_full": "2041-Jun-26 14:00",
            "epoch_date_close_approach": 2255868000000,
            "relative_velocity": {
                "kilometers_per_second": "3.6178423343",
                "kilometers_per_hour": "13024.232403582",
                "miles_per_hour": "8092.751517659"
            },
            "miss_distance": {
                "astronomical": "0.2608211129",
                "lunar": "101.4594129181",
                "kilometers": "39018282.940869523",
                "miles": "24244836.7714364974"
            },
            "orbiting_body": "Earth"
        }
    ],
    "orbital_data": {
        "orbit_id": "8",
        "orbit_determination_date": "2018-02-10 07:06:50",
        "first_observation_date": "2015-05-10",
        "last_observation_date": "2015-07-12",
        "data_arc_in_days": 63,
        "observations_used": 36,
        "orbit_uncertainty": "5",
        "minimum_orbit_intersection": ".271862",
        "jupiter_tisserand_invariant": "3.361",
        "epoch_osculation": "2459000.5",
        "eccentricity": ".4693261923571742",
        "semi_major_axis": "2.399501730297006",
        "inclination": "5.915952797962065",
        "ascending_node_longitude": "228.4381670192568",
        "orbital_period": "1357.625629361503",
        "perihelion_distance": "1.273352719662261",
        "perihelion_argument": "51.02905954561813",
        "aphelion_distance": "3.52565074093175",
        "perihelion_time": "2458577.028751632092",
        "mean_anomaly": "112.2913755570043",
        "mean_motion": ".2651688302093335",
        "equinox": "J2000",
        "orbit_class": {
            "orbit_class_type": "AMO",
            "orbit_class_description": "Near-Earth asteroid orbits similar to that of 1221 Amor",
            "orbit_class_range": "1.017 AU < q (perihelion) < 1.3 AU"
        }
    },
    "is_sentry_object": false
}